{
  "norad_id": 64210,
  "name": "STARLINK-34310",
  "history": [
    {
      "epoch": "2026-04-11T09:02:06.537984Z",
      "apogee_km": 476.59750529424036,
      "perigee_km": 473.6958249904201,
      "latitude_deg": 1.6325020012500314e-05,
      "longitude_deg": -87.59066767610753,
      "height_km": 475.665083301923,
      "semi_major_axis_km": 6853.28366514233,
      "eccentricity": 0.0002117,
      "inclination_deg": 53.158,
      "raan_deg": 247.5334,
      "arg_perigee_deg": 74.8835,
      "mean_anomaly_deg": 285.24,
      "mean_motion_rev_day": 15.3022291
    },
    {
      "epoch": "2026-04-13T01:47:29.308128Z",
      "apogee_km": 475.9153144935017,
      "perigee_km": 474.503113972597,
      "latitude_deg": -5.373551632938424e-05,
      "longitude_deg": 11.50170029263266,
      "height_km": 476.01257528251244,
      "semi_major_axis_km": 6853.346214233049,
      "eccentricity": 0.00010303,
      "inclination_deg": 53.1583,
      "raan_deg": 239.6445,
      "arg_perigee_deg": 82.2778,
      "mean_anomaly_deg": 277.8339,
      "mean_motion_rev_day": 15.30201961
    },
    {
      "epoch": "2026-04-14T18:32:54.434400Z",
      "apogee_km": 475.9365420110362,
      "perigee_km": 474.51241349595784,
      "latitude_deg": -9.686080090916983e-06,
      "longitude_deg": 110.58501235270907,
      "height_km": 475.78175806147203,
      "semi_major_axis_km": 6853.361477753497,
      "eccentricity": 0.0001039,
      "inclination_deg": 53.1584,
      "raan_deg": 231.7563,
      "arg_perigee_deg": 61.3769,
      "mean_anomaly_deg": 298.7336,
      "mean_motion_rev_day": 15.30196849
    },
    {
      "epoch": "2026-04-15T13:21:32.020704Z",
      "apogee_km": 475.8822420872348,
      "perigee_km": 474.40467482039185,
      "latitude_deg": -1.0124320338692342e-06,
      "longitude_deg": -175.9854066744966,
      "height_km": 475.62874869034516,
      "semi_major_axis_km": 6853.280458453813,
      "eccentricity": 0.0001078,
      "inclination_deg": 53.1585,
      "raan_deg": 228.115,
      "arg_perigee_deg": 55.9977,
      "mean_anomaly_deg": 304.1126,
      "mean_motion_rev_day": 15.30223984
    },
    {
      "epoch": "2026-04-16T14:26:21.962976Z",
      "apogee_km": 475.91260861957926,
      "perigee_km": 474.46107462992313,
      "latitude_deg": 2.5894392097813654e-06,
      "longitude_deg": 161.92298407646837,
      "height_km": 475.9517667504611,
      "semi_major_axis_km": 6853.3238416247505,
      "eccentricity": 0.0001059,
      "inclination_deg": 53.1595,
      "raan_deg": 223.2615,
      "arg_perigee_deg": 79.4075,
      "mean_anomaly_deg": 280.7045,
      "mean_motion_rev_day": 15.30209454
    },
    {
      "epoch": "2026-04-17T17:05:16.490688Z",
      "apogee_km": 475.9032075452542,
      "perigee_km": 474.5426785293621,
      "latitude_deg": 1.6488324199979104e-05,
      "longitude_deg": 115.94338302647381,
      "height_km": 476.04829767228256,
      "semi_major_axis_km": 6853.359943037308,
      "eccentricity": 9.926e-05,
      "inclination_deg": 53.1609,
      "raan_deg": 218.1035,
      "arg_perigee_deg": 83.8229,
      "mean_anomaly_deg": 276.2885,
      "mean_motion_rev_day": 15.30197363
    },
    {
      "epoch": "2026-04-18T13:27:57.699072Z",
      "apogee_km": 476.14680708796277,
      "perigee_km": 474.16620526467796,
      "latitude_deg": -3.552495533054016e-05,
      "longitude_deg": 165.4903436235706,
      "height_km": 476.2402130502623,
      "semi_major_axis_km": 6853.29350617632,
      "eccentricity": 0.0001445,
      "inclination_deg": 53.1612,
      "raan_deg": 214.1591,
      "arg_perigee_deg": 100.808,
      "mean_anomaly_deg": 259.3083,
      "mean_motion_rev_day": 15.30219614
    },
    {
      "epoch": "2026-04-19T12:58:46.112736Z",
      "apogee_km": 476.3283094729368,
      "perigee_km": 474.1688076834298,
      "latitude_deg": -4.326099430223047e-06,
      "longitude_deg": 167.27297957727444,
      "height_km": 476.1992049386494,
      "semi_major_axis_km": 6853.385558578183,
      "eccentricity": 0.00015755,
      "inclination_deg": 53.1602,
      "raan_deg": 209.6091,
      "arg_perigee_deg": 92.8123,
      "mean_anomaly_deg": 267.3058,
      "mean_motion_rev_day": 15.30188784
    },
    {
      "epoch": "2026-04-20T12:29:34.414080Z",
      "apogee_km": 476.08119150309085,
      "perigee_km": 474.31727982275606,
      "latitude_deg": 3.0044938447773134e-05,
      "longitude_deg": 169.05678613054008,
      "height_km": 476.02022523307926,
      "semi_major_axis_km": 6853.336235662923,
      "eccentricity": 0.00012869,
      "inclination_deg": 53.1618,
      "raan_deg": 205.0598,
      "arg_perigee_deg": 84.9743,
      "mean_anomaly_deg": 275.1405,
      "mean_motion_rev_day": 15.30205303
    }
  ]
}